NOAA 15                 
1 25338U 98030A   24094.53934115  .00000249  00000+0  12115-3 0  9998
2 25338  98.5770 123.2012 0010501 176.5868 183.5386 14.26526999346547
DMSP 5D-3 F16 (USA 172) 
1 28054U 03048A   24094.57764417  .00000243  00000+0  15225-3 0  9990
2 28054  99.0232 100.3429 0006169 263.3216 204.0998 14.13983359 55750
NOAA 18                 
1 28654U 05018A   24094.51297594  .00000253  00000+0  15912-3 0  9990
2 28654  98.8769 172.0940 0013154 274.4607  85.5062 14.13159364972620
METEOSAT-9 (MSG-2)      
1 28912U 05049B   24094.58088167  .00000126  00000+0  00000+0 0  9999
2 28912   7.5155  61.4714 0001713 324.8032  60.9736  1.00268214 66988
EWS-G1 (GOES 13)        
1 29155U 06018A   24094.59771524 -.00000136  00000+0  00000+0 0  9995
2 29155   2.4297  86.1202 0087620 252.7598 250.5649  0.99157950 35293
DMSP 5D-3 F17 (USA 191) 
1 29522U 06050A   24094.55800940  .00000251  00000+0  15366-3 0  9992
2 29522  98.7481 106.6659 0009900 185.7156 174.3906 14.14430052898642
FENGYUN 3A              
1 32958U 08026A   24094.57621088  .00000216  00000+0  12364-3 0  9996
2 32958  98.5970  43.8829 0007656 291.5474  68.4886 14.19046930821263
FENGYUN 2E              
1 33463U 08066A   24094.14312185 -.00000146  00000+0  00000+0 0  9993
2 33463   7.4118  61.1426 0002311  16.7706 169.9631  0.99122820 56027
NOAA 19                 
1 33591U 09005A   24094.59564858  .00000242  00000+0  15406-3 0  9990
2 33591  99.0556 149.5823 0014625 140.0788 220.1462 14.12960677780831
GOES 14                 
1 35491U 09033A   24094.55024970 -.00000070  00000+0  00000+0 0  9994
2 35491   0.1627 116.2615 0003026 299.1237 226.5467  1.00270354 54043
DMSP 5D-3 F18 (USA 210) 
1 35951U 09057A   24094.54552174  .00000416  00000+0  24166-3 0  9998
2 35951  98.8083  70.9261 0011718  24.9056 335.2680 14.14048088745832
EWS-G2 (GOES 15)        
1 36411U 10008A   24094.58401448  .00000034  00000+0  00000+0 0  9992
2 36411   0.1070  93.3404 0002260 198.0800 172.4195  1.00272321 51579
COMS 1                  
1 36744U 10032A   24094.62886584 -.00000348  00000+0  00000+0 0  9990
2 36744   2.7353  85.4797 0000934 294.0059 167.4840  1.00270471 43022
FENGYUN 3B              
1 37214U 10059A   24094.60088095  .00000118  00000+0  85574-4 0  9999
2 37214  99.0633 121.6272 0021259 304.9752 216.3155 14.14465753693662
SUOMI NPP               
1 37849U 11061A   24094.54091447  .00000137  00000+0  85652-4 0  9993
2 37849  98.7166  33.6625 0001622  99.0970 261.0390 14.19541121644273
FENGYUN 2F              
1 38049U 12002A   24094.61297241 -.00000358  00000+0  00000+0 0  9995
2 38049   5.4083  73.8458 0002881  53.2154  38.0499  1.00275862 44811
METEOSAT-10 (MSG-3)     
1 38552U 12035B   24094.57191833 -.00000007  00000+0  00000+0 0  9996
2 38552   2.7975  60.3086 0001760 309.0311  29.1785  1.00276316 42788
METOP-B                 
1 38771U 12049A   24094.56316918  .00000163  00000+0  94360-4 0  9995
2 38771  98.6354 153.4335 0000753 129.5115 230.6129 14.21497006598959
INSAT-3D                
1 39216U 13038B   24094.51657194 -.00000161  00000+0  00000+0 0  9990
2 39216   0.0635  84.8776 0001717 230.0998 145.4150  1.00271718 39014
FENGYUN 3C              
1 39260U 13052A   24094.55876604  .00000176  00000+0  10960-3 0  9993
2 39260  98.4300  98.1219 0011107 176.1236 184.0027 14.16171286544701
METEOR-M 2              
1 40069U 14037A   24094.53105833  .00000219  00000+0  12055-3 0  9998
2 40069  98.4360  92.1133 0005119 204.5589 155.5346 14.20922248505024
HIMAWARI-8              
1 40267U 14060A   24094.52688378 -.00000281  00000+0  00000+0 0  9996
2 40267   0.0230 197.1326 0001025 214.4933 111.0343  1.00269668 34692
FENGYUN 2G              
1 40367U 14090A   24094.59887983 -.00000305  00000+0  00000+0 0  9997
2 40367   3.5983  82.3575 0002289  77.6859 347.5414  1.00277555 33931
METEOSAT-11 (MSG-4)     
1 40732U 15034A   24094.57365878  .00000059  00000+0  00000+0 0  9999
2 40732   1.2083  66.9201 0001105 233.8473 107.3337  1.00275047 31940
ELEKTRO-L 2             
1 41105U 15074A   24094.35415163 -.00000117  00000+0  00000+0 0  9993
2 41105   4.6500  80.3377 0001901 221.7714   3.0546  1.00270524 30430
INSAT-3DR               
1 41752U 16054A   24094.44337932 -.00000082  00000+0  00000+0 0  9998
2 41752   0.1002  87.5554 0011171 190.1309 148.1916  1.00271814 27746
HIMAWARI-9              
1 41836U 16064A   24094.52688378 -.00000279  00000+0  00000+0 0  9992
2 41836   0.0355  80.7950 0000900 307.2008 134.7947  1.00271777 27146
GOES 16                 
1 41866U 16071A   24094.55686341 -.00000253  00000+0  00000+0 0  9996
2 41866   0.0289 276.9510 0000826 135.6363 265.0427  1.00271533 27039
FENGYUN 4A              
1 41882U 16077A   24094.58194897 -.00000208  00000+0  00000+0 0  9993
2 41882   0.2680  81.5524 0007982 348.5974  58.7494  1.00277337 26917
CYGFM05                 
1 41884U 16078A   24094.30881028  .00007792  00000+0  30329-3 0  9990
2 41884  34.9535  54.5054 0014190 238.1417 121.7916 15.25177399404633
CYGFM04                 
1 41885U 16078B   24094.53719237  .00007982  00000+0  30291-3 0  9997
2 41885  34.9462  37.8294 0011810 261.8379  98.0996 15.26043465404911
CYGFM02                 
1 41886U 16078C   24094.18374521  .00008406  00000+0  31575-3 0  9990
2 41886  34.9585  42.4791 0014543 251.3232 108.5904 15.26335874404789
CYGFM01                 
1 41887U 16078D   24094.60439572  .00007814  00000+0  30667-3 0  9999
2 41887  34.9506  56.2910 0013974 235.9609 123.9779 15.24903378404613
CYGFM08                 
1 41888U 16078E   24094.53910557  .00007545  00000+0  28790-3 0  9994
2 41888  34.9483  45.5986 0014549 253.7459 106.1656 15.25836512404772
CYGFM07                 
1 41890U 16078G   24094.20485591  .00008129  00000+0  30756-3 0  9990
2 41890  34.9484  39.3913 0011452 258.1726 101.7705 15.26141342404714
CYGFM03                 
1 41891U 16078H   24094.23576402  .00008510  00000+0  32238-3 0  9997
2 41891  34.9544  40.3065 0012454 248.0270 111.9121 15.26082956404706
FENGYUN 3D              
1 43010U 17072A   24094.58156742  .00000164  00000+0  99711-4 0  9993
2 43010  98.9033  48.8311 0001598 148.5124 211.6147 14.19309039330833
NOAA 20 (JPSS-1)        
1 43013U 17073A   24094.55917866  .00000143  00000+0  85742-4 0  9992
2 43013  98.7041  33.7455 0007499 321.5959  38.4684 14.21254993330315
GOES 17                 
1 43226U 18022A   24094.55103289 -.00000095  00000+0  00000+0 0  9995
2 43226   0.0109  83.2970 0000924 274.1769 288.5798  1.00271654 22354
FENGYUN 2H              
1 43491U 18050A   24094.58758240 -.00000132  00000+0  00000+0 0  9998
2 43491   0.9482  87.7357 0001139   8.6050  26.6104  1.00275312 21379
METOP-C                 
1 43689U 18087A   24094.59956081  .00000156  00000+0  91364-4 0  9994
2 43689  98.6873 154.7669 0001293 306.2905  53.8153 14.21508668280524
GEO-KOMPSAT-2A          
1 43823U 18100A   24094.31098843 -.00000348  00000+0  00000+0 0  9999
2 43823   0.0399  23.4127 0002111  41.1471   7.7745  1.00271554 19550
METEOR-M2 2             
1 44387U 19038A   24094.52354978  .00000084  00000+0  56446-4 0  9999
2 44387  98.8201  63.4828 0001676 135.1097 225.0217 14.23866604246767
ARKTIKA-M 1             
1 47719U 21016A   24094.48124103  .00000131  00000+0  00000+0 0  9993
2 47719  63.1357 160.2807 6918971 268.8623  18.0760  2.00604433 22643
FENGYUN 3E              
1 49008U 21062A   24094.57384779  .00000045  00000+0  42030-4 0  9992
2 49008  98.7335  96.8536 0000683 204.7194 155.3950 14.19739654142407
GOES 18                 
1 51850U 22021A   24094.54459323  .00000092  00000+0  00000+0 0  9999
2 51850   0.0019 264.8254 0000299 127.3885 219.1913  1.00271000  7707
NOAA 21 (JPSS-2)        
1 54234U 22150A   24094.59279263  .00000171  00000+0  10210-3 0  9995
2 54234  98.7463  33.3814 0001309  60.4950 299.6357 14.19540188 72399
METEOSAT-12 (MTG-I1)    
1 54743U 22170C   24094.57165726 -.00000012  00000+0  00000+0 0  9995
2 54743   0.4144  21.3097 0001073  21.8050 354.6272  1.00269781  4914
TIANMU-1 03             
1 55973U 23039A   24094.62199876  .00008712  00000+0  35640-3 0  9991
2 55973  97.4592 245.5351 0012365  16.0369 344.1257 15.24507265 57492
TIANMU-1 04             
1 55974U 23039B   24094.60470902  .00008291  00000+0  33986-3 0  9995
2 55974  97.4512 245.1585 0009447  16.8829 343.2721 15.24482432 57489
TIANMU-1 05             
1 55975U 23039C   24094.59038848  .00008275  00000+0  33954-3 0  9990
2 55975  97.4561 245.4187 0005552  15.2331 344.9073 15.24476186 57475
TIANMU-1 06             
1 55976U 23039D   24094.57481663  .00008702  00000+0  35698-3 0  9998
2 55976  97.4575 245.5052 0005090  18.3965 341.7456 15.24471432 57476
METEOR-M2 3             
1 57166U 23091A   24094.55907267  .00000017  00000+0  26544-4 0  9992
2 57166  98.7214 149.8736 0003786   3.6211 356.4994 14.23879944 40008
TIANMU-1 07             
1 57399U 23101A   24094.60418257  .00004644  00000+0  24457-3 0  9994
2 57399  97.3715 153.8843 0006319  92.7136 267.4821 15.16073862 39120
TIANMU-1 08             
1 57400U 23101B   24094.57362358  .00005352  00000+0  28207-3 0  9997
2 57400  97.3705 153.7381 0008999  95.6264 264.5996 15.15963045 39118
TIANMU-1 09             
1 57401U 23101C   24094.55520589  .00004966  00000+0  26128-3 0  9998
2 57401  97.3660 153.6097 0009030  90.5365 269.6903 15.16058697 39118
TIANMU-1 10             
1 57402U 23101D   24094.58715839  .00005249  00000+0  27622-3 0  9991
2 57402  97.3739 153.8380 0011201  89.6032 270.6484 15.16004561 39113
FENGYUN 3F              
1 57490U 23111A   24094.60173533  .00000107  00000+0  71244-4 0  9999
2 57490  98.7749 164.4053 0000528  53.8461 306.2764 14.19786352 34681
TIANMU-1 11             
1 58645U 23205A   24094.53400702  .00004387  00000+0  23988-3 0  9994
2 58645  97.4119 121.5701 0009530 293.1844  66.8384 15.14755913 15211
TIANMU-1 12             
1 58646U 23205B   24094.54780764  .00005134  00000+0  28181-3 0  9996
2 58646  97.4104 121.5332 0008331 289.4893  70.5439 15.14547569 15204
TIANMU-1 13             
1 58647U 23205C   24094.57831792  .00004168  00000+0  23263-3 0  9990
2 58647  97.4133 121.5329 0008497 281.0357  78.9919 15.14053980 15203
TIANMU-1 14             
1 58648U 23205D   24094.56219512  .00004901  00000+0  27300-3 0  9991
2 58648  97.4058 121.4549 0008868 281.6060  78.4176 15.14033944 15200
TIANMU-1 19             
1 58660U 23208A   24094.56563965  .00005397  00000+0  29941-3 0  9995
2 58660  97.4020 208.9202 0010079 263.3813  96.6272 15.14126605 14878
TIANMU-1 20             
1 58661U 23208B   24094.60335549  .00006083  00000+0  33364-3 0  9993
2 58661  97.3946 208.9240 0009277 272.9246  87.0924 15.14491799 14889
TIANMU-1 21             
1 58662U 23208C   24094.57120744  .00005869  00000+0  31513-3 0  9994
2 58662  97.3987 209.0201 0008897 273.3864  86.6351 15.15263562 14887
TIANMU-1 22             
1 58663U 23208D   24094.58233045  .00005605  00000+0  31082-3 0  9994
2 58663  97.4006 209.0269 0005257 276.2761  83.7872 15.14154521 14889
TIANMU-1 15             
1 58700U 24004A   24094.55774973  .00004559  00000+0  25372-3 0  9990
2 58700  97.4625 277.0984 0009351 313.8485  46.1973 15.14106485 13472
TIANMU-1 16             
1 58701U 24004B   24094.54169450  .00004618  00000+0  25701-3 0  9990
2 58701  97.4549 277.0324 0009408 321.7165  38.3397 15.14095543 13477
TIANMU-1 17             
1 58702U 24004C   24094.59183729  .00005496  00000+0  30542-3 0  9995
2 58702  97.4594 277.1702 0006806 316.9602  43.1097 15.14086373 13472
TIANMU-1 18             
1 58703U 24004D   24094.57597312  .00005253  00000+0  29251-3 0  9997
2 58703  97.4611 277.2089 0005980 307.4282  52.6405 15.14038887 13478
INSAT-3DS               
1 58990U 24033A   24094.58565728 -.00000170  00000+0  00000+0 0  9995
2 58990   0.1418  86.8198 0011295 359.5288  39.8821  1.00272240   228
METEOR-M2 4             
1 59051U 24039A   24094.56117332  .00000070  00000+0  51058-4 0  9994
2 59051  98.5903  58.3222 0006870 351.3223   8.7835 14.22207966  4888
